OBJECT_NAME,OBJECT_ID,EPOCH,MEAN_MOTION,ECCENTRICITY,INCLINATION,RA_OF_ASC_NODE,ARG_OF_PERICENTER,MEAN_ANOMALY,EPHEMERIS_TYPE,CLASSIFICATION_TYPE,NORAD_CAT_ID,ELEMENT_SET_NO,REV_AT_EPOCH,BSTAR,MEAN_MOTION_DOT,MEAN_MOTION_DDOT
DMSP 5D-3 F16 (USA 172),2003-048A,2026-06-30T23:14:05.109216,14.14484194,.00081678,98.9886,205.8873,106.0086,5.4646,0,U,28054,999,17143,.27699462E-4,.8E-7,0
METEOSAT-9 (MSG-2),2005-049B,2026-06-30T17:43:00.765984,1.00279300,.00018275,9.3903,54.0333,1.4312,174.9175,0,U,28912,999,713,0,.127E-5,0
DMSP 5D-3 F17 (USA 191),2006-050A,2026-06-30T23:00:04.907232,14.14994764,.00105842,98.7379,188.2466,23.0403,337.1243,0,U,29522,999,1437,.33535645E-4,.22E-6,0
FENGYUN 3A,2008-026A,2026-06-30T08:50:56.610528,14.19573724,.00098846,98.6885,121.9554,89.7733,270.4576,0,U,32958,999,93727,.51550923E-4,.65E-6,0
GOES 14,2009-033A,2026-06-30T19:50:43.396224,1.00106450,.00022761,1.7235,82.8906,23.5593,243.9584,0,U,35491,999,672,0,-.325E-5,0
DMSP 5D-3 F18 (USA 210),2009-057A,2026-06-30T22:20:09.118176,14.14904480,.00103913,98.9044,162.6703,206.8455,153.2182,0,U,35951,999,86153,.16131554E-3,.267E-5,0
EWS-G2 (GOES 15),2010-008A,2026-06-30T21:38:38.652000,1.00268280,.00053927,1.3136,82.6617,44.7242,179.7355,0,U,36411,999,5977,0,.3E-6,0
COMS 1,2010-032A,2026-06-30T19:18:00.054720,0.99168462,.0011864,4.8382,75.1972,13.5533,138.8109,0,U,36744,999,5122,0,-.44E-6,0
FENGYUN 3B,2010-059A,2026-06-30T23:08:26.180160,14.14843316,.00226306,98.9615,228.0365,145.2202,335.6101,0,U,37214,999,80937,-.1339522E-3,-.304E-5,0
SUOMI NPP,2011-061A,2026-06-30T22:39:51.129792,14.19520133,.00007769,98.7955,122.7265,320.1208,39.9911,0,U,37849,999,76039,.56451724E-4,.75E-6,0
METEOSAT-10 (MSG-3),2012-035B,2026-06-30T19:12:38.071296,1.00269307,.00016746,4.7021,60.9556,13.8848,132.3208,0,U,38552,999,5099,0,.1E-7,0
METOP-B,2012-049A,2026-06-30T21:58:50.618496,14.21443042,.00013967,98.6497,233.1408,335.4088,24.7023,0,U,38771,999,71521,.72935387E-4,.116E-5,0
INSAT-3D,2013-038B,2026-06-30T19:49:28.515936,1.00269860,.00011321,1.9597,82.3824,10.7143,252.6687,0,U,39216,999,4721,0,-.33E-5,0
FENGYUN 3C,2013-052A,2026-06-30T23:11:43.565280,14.15758071,.00144401,98.4987,155.2090,348.6625,11.4223,0,U,39260,999,66051,.62394884E-4,.81E-6,0
METEOR-M 2,2014-037A,2026-06-30T22:36:31.487904,14.21464152,.00060581,98.5116,157.1936,9.1483,350.9804,0,U,40069,999,62127,-.94785625E-4,-.249E-5,0
HIMAWARI-8,2014-060A,2026-06-30T19:52:35.717088,1.00272768,.00011136,0.0179,10.8288,89.9992,256.8861,0,U,40267,999,4289,0,-.265E-5,0
FENGYUN 2G,2014-090A,2026-06-30T14:33:01.295136,1.00267570,.00036132,5.6718,72.6578,150.2358,13.6327,0,U,40367,999,4213,0,-.295E-5,0
METEOSAT-11 (MSG-4),2015-034A,2026-06-30T19:15:07.831008,1.00267341,.00022268,3.2346,71.0256,348.3557,157.6180,0,U,40732,999,735,0,.7E-6,0
ELEKTRO-L 2,2015-074A,2026-06-30T03:05:16.247328,1.00271247,.0000706,6.7257,70.3668,276.5342,323.0657,0,U,41105,999,3863,0,-.112E-5,0
SENTINEL-3A,2016-011A,2026-06-30T23:05:19.130208,14.26736400,.00014304,98.6245,249.1475,95.2455,264.8889,0,U,41335,999,54002,.69741894E-4,.125E-5,0
INSAT-3DR,2016-054A,2026-06-30T21:22:38.769600,1.00272402,.00100551,0.1389,85.9875,186.5887,41.0171,0,U,41752,999,3595,0,-.66E-6,0
HIMAWARI-9,2016-064A,2026-06-30T16:27:19.784160,1.00269249,.00014661,0.0355,265.4116,222.5242,178.3897,0,U,41836,999,3534,0,-.265E-5,0
GOES 16,2016-071A,2026-06-30T16:59:54.161664,1.00272105,.00005935,0.3732,85.5219,21.9495,321.5863,0,U,41866,999,3523,0,-.81E-6,0
FENGYUN 4A,2016-077A,2026-06-30T19:47:51.171648,1.00277086,.00079203,2.3560,80.1415,158.0711,101.3415,0,U,41882,999,3506,0,-.348E-5,0
CYGFM05,2016-078A,2026-06-30T23:09:42.628608,15.57246850,.00081949,34.9549,169.3132,271.7967,88.1818,0,U,41884,999,53090,.37901171E-3,.28635E-3,0
CYGFM04,2016-078B,2026-06-30T22:56:45.703392,15.62270291,.00067979,34.9313,136.3592,306.9458,53.0645,0,U,41885,999,53115,.40341154E-3,.36979E-3,0
CYGFM02,2016-078C,2026-06-30T22:19:01.376256,15.65390825,.00077371,34.9394,130.6594,309.5613,50.4429,0,U,41886,999,53132,.40703772E-3,.42267E-3,0
CYGFM01,2016-078D,2026-06-30T08:54:13.082400,15.57911705,.00080366,34.9380,174.2001,262.0465,97.9347,0,U,41887,999,53076,.27877232E-3,.21563E-3,0
CYGFM08,2016-078E,2026-06-30T22:43:57.675648,15.60711956,.00088679,34.9416,149.5860,295.1528,64.8277,0,U,41888,999,53112,.39512656E-3,.34103E-3,0
CYGFM07,2016-078G,2026-06-30T23:15:59.734368,15.60817229,.00071803,34.9435,137.7668,307.1458,52.8611,0,U,41890,999,53115,.39047411E-3,.33815E-3,0
CYGFM03,2016-078H,2026-06-30T22:34:20.604864,15.60806093,.00071153,34.9391,139.8936,294.8225,65.1760,0,U,41891,999,53112,.39389043E-3,.34097E-3,0
