DMSP 5D-3 F16 (USA 172) 
1 28054U 03048A   26181.96811469  .00000008  00000+0  27699-4 0  9990
2 28054  98.9886 205.8873 0008167 106.0086   5.4646 14.14484194171436
METEOSAT-9 (MSG-2)      
1 28912U 05049B   26181.73820331  .00000127  00000+0  00000+0 0  9993
2 28912   9.3903  54.0333 0001827   1.4312 174.9175  1.00279300  7132
DMSP 5D-3 F17 (USA 191) 
1 29522U 06050A   26181.95839013  .00000022  00000+0  33536-4 0  9994
2 29522  98.7379 188.2466 0010584  23.0403 337.1243 14.14994764 14377
FENGYUN 3A              
1 32958U 08026A   26181.36871077  .00000065  00000+0  51551-4 0  9991
2 32958  98.6885 121.9554 0009884  89.7733 270.4576 14.19573724937278
GOES 14                 
1 35491U 09033A   26181.82689116 -.00000325  00000+0  00000+0 0  9995
2 35491   1.7235  82.8906 0002276  23.5593 243.9584  1.00106450  6726
DMSP 5D-3 F18 (USA 210) 
1 35951U 09057A   26181.93066109  .00000267  00000+0  16132-3 0  9996
2 35951  98.9044 162.6703 0010391 206.8455 153.2182 14.14904480861538
EWS-G2 (GOES 15)        
1 36411U 10008A   26181.90183625  .00000030  00000+0  00000+0 0  9997
2 36411   1.3136  82.6617 0005392  44.7242 179.7355  1.00268280 59775
COMS 1                  
1 36744U 10032A   26181.80416730 -.00000044  00000+0  00000+0 0  9994
2 36744   4.8382  75.1972 0011864  13.5533 138.8109  0.99168462 51227
FENGYUN 3B              
1 37214U 10059A   26181.96419190 -.00000304  00000+0 -13395-3 0  9991
2 37214  98.9615 228.0365 0022630 145.2202 335.6101 14.14843316809373
SUOMI NPP               
1 37849U 11061A   26181.94434178  .00000075  00000+0  56452-4 0  9995
2 37849  98.7955 122.7265 0000776 320.1208  39.9911 14.19520133760393
METEOSAT-10 (MSG-3)     
1 38552U 12035B   26181.80044064  .00000001  00000+0  00000+0 0  9997
2 38552   4.7021  60.9556 0001674  13.8848 132.3208  1.00269307 50990
METOP-B                 
1 38771U 12049A   26181.91586364  .00000116  00000+0  72935-4 0  9999
2 38771  98.6497 233.1408 0001396 335.4088  24.7023 14.21443042715211
INSAT-3D                
1 39216U 13038B   26181.82602449 -.00000330  00000+0  00000+0 0  9994
2 39216   1.9597  82.3824 0001132  10.7143 252.6687  1.00269860 47216
FENGYUN 3C              
1 39260U 13052A   26181.96647645  .00000081  00000+0  62395-4 0  9993
2 39260  98.4987 155.2090 0014440 348.6625  11.4223 14.15758071660516
METEOR-M 2              
1 40069U 14037A   26181.94203111 -.00000249  00000+0 -94786-4 0  9997
2 40069  98.5116 157.1936 0006058   9.1483 350.9804 14.21464152621274
HIMAWARI-8              
1 40267U 14060A   26181.82819117 -.00000265  00000+0  00000+0 0  9997
2 40267   0.0179  10.8288 0001113  89.9992 256.8861  1.00272768 42899
FENGYUN 2G              
1 40367U 14090A   26181.60626499 -.00000295  00000+0  00000+0 0  9999
2 40367   5.6718  72.6578 0003613 150.2358  13.6327  1.00267570 42131
METEOSAT-11 (MSG-4)     
1 40732U 15034A   26181.80217397  .00000070  00000+0  00000+0 0  9999
2 40732   3.2346  71.0256 0002226 348.3557 157.6180  1.00267341  7351
ELEKTRO-L 2             
1 41105U 15074A   26181.12866027 -.00000112  00000+0  00000+0 0  9991
2 41105   6.7257  70.3668 0000706 276.5342 323.0657  1.00271247 38632
SENTINEL-3A             
1 41335U 16011A   26181.96202697  .00000125  00000+0  69742-4 0  9993
2 41335  98.6245 249.1475 0001430  95.2455 264.8889 14.26736400540021
INSAT-3DR               
1 41752U 16054A   26181.89072650 -.00000066  00000+0  00000+0 0  9991
2 41752   0.1389  85.9875 0010055 186.5887  41.0171  1.00272402 35952
HIMAWARI-9              
1 41836U 16064A   26181.68564565 -.00000265  00000+0  00000+0 0  9994
2 41836   0.0355 265.4116 0001466 222.5242 178.3897  1.00269249 35349
GOES 16                 
1 41866U 16071A   26181.70826576 -.00000081  00000+0  00000+0 0  9997
2 41866   0.3732  85.5219 0000593  21.9495 321.5863  1.00272105 35238
FENGYUN 4A              
1 41882U 16077A   26181.82489782 -.00000348  00000+0  00000+0 0  9994
2 41882   2.3560  80.1415 0007920 158.0711 101.3415  1.00277086 35061
CYGFM05                 
1 41884U 16078A   26181.96507672  .00028635  00000+0  37901-3 0  9993
2 41884  34.9549 169.3132 0008194 271.7967  88.1818 15.57246850530901
CYGFM04                 
1 41885U 16078B   26181.95608453  .00036979  00000+0  40341-3 0  9994
2 41885  34.9313 136.3592 0006797 306.9458  53.0645 15.62270291531157
CYGFM02                 
1 41886U 16078C   26181.92987704  .00042267  00000+0  40704-3 0  9991
2 41886  34.9394 130.6594 0007737 309.5613  50.4429 15.65390825531322
CYGFM01                 
1 41887U 16078D   26181.37098475  .00021563  00000+0  27877-3 0  9991
2 41887  34.9380 174.2001 0008036 262.0465  97.9347 15.57911705530765
CYGFM08                 
1 41888U 16078E   26181.94719532  .00034103  00000+0  39513-3 0  9993
2 41888  34.9416 149.5860 0008867 295.1528  64.8277 15.60711956531129
CYGFM07                 
1 41890U 16078G   26181.96944137  .00033815  00000+0  39047-3 0  9990
2 41890  34.9435 137.7668 0007180 307.1458  52.8611 15.60817229531153
CYGFM03                 
1 41891U 16078H   26181.94051626  .00034097  00000+0  39389-3 0  9993
2 41891  34.9391 139.8936 0007115 294.8225  65.1760 15.60806093531124
